OBJECT_NAME,OBJECT_ID,EPOCH,MEAN_MOTION,ECCENTRICITY,INCLINATION,RA_OF_ASC_NODE,ARG_OF_PERICENTER,MEAN_ANOMALY,EPHEMERIS_TYPE,CLASSIFICATION_TYPE,NORAD_CAT_ID,ELEMENT_SET_NO,REV_AT_EPOCH,BSTAR,MEAN_MOTION_DOT,MEAN_MOTION_DDOT
HODOYOSHI-4,2014-033B,2026-06-08T03:47:59.959968,14.88109044,.0023313,97.5458,344.4169,339.5942,20.4341,0,U,40011,999,64746,.1411E-3,.1252E-4,0
DEIMOS-2,2014-033D,2026-06-08T03:21:06.795072,14.93704758,.0002054,97.5836,33.9460,59.6778,300.4645,0,U,40013,999,63637,.25117E-3,.2603E-4,0
HODOYOSHI-3,2014-033F,2026-06-08T00:33:50.496768,14.85370547,.00335,97.6412,322.4336,27.2469,333.0495,0,U,40015,999,64626,.14919E-3,.1244E-4,0
SPOT 7,2014-034A,2026-06-08T03:23:02.685984,14.60951107,.000119,98.0627,221.8654,85.0679,275.0658,0,U,40053,999,63581,.12046E-3,.545E-5,0
SKYSAT-B,2014-037D,2026-06-07T18:40:35.061312,14.88004373,.000461,98.3832,117.2073,320.3050,39.7827,0,U,40072,999,64456,.18161E-3,.1606E-4,0
WORLDVIEW-3 (WV-3),2014-048A,2026-06-08T03:19:14.166624,14.85007339,.0001671,97.8565,234.0961,39.6239,320.5097,0,U,40115,999,64056,.10881E-3,.875E-5,0
GAOFEN-2,2014-049A,2026-06-08T04:33:20.869632,14.80888095,.0005897,98.0106,223.4055,262.8434,97.2108,0,U,40118,999,63790,.47155E-4,.311E-5,0
YAOGAN-21,2014-053A,2026-06-08T04:20:30.040800,15.26243056,.0009662,97.1477,199.8039,119.0333,241.1876,0,U,40143,999,65358,.31533E-3,.811E-4,0
YAOGAN-22,2014-063A,2026-06-08T03:15:16.911360,13.15530907,.0006138,100.7713,310.2590,205.9601,154.1203,0,U,40275,999,55862,.12473E-3,0,0
ASNARO,2014-070A,2026-06-08T04:51:34.083648,15.19304612,.0004683,97.3449,235.5602,194.6870,165.4229,0,U,40298,999,64264,.4008E-3,.8399E-4,0
YAOGAN-24,2014-072A,2026-06-08T04:51:54.644256,14.76211120,.001269,98.1480,296.4654,295.6040,64.3858,0,U,40310,999,62239,.10417E-3,.668E-5,0
CBERS 4,2014-079A,2026-06-08T04:26:29.029344,14.35507116,.0002042,98.3530,216.2988,71.9227,288.2182,0,U,40336,999,60266,.81836E-4,.193E-5,0
YAOGAN-26,2014-088A,2026-06-08T04:59:47.328288,15.46997847,.0006542,97.0647,159.6304,88.3291,271.8708,0,U,40362,999,63631,.5824E-3,.29403E-3,0
SMAP,2015-003A,2026-06-08T04:34:57.648000,14.63358828,.0001266,98.1276,166.4130,93.1601,266.9746,0,U,40376,999,60630,.98626E-4,.463E-5,0
KOMPSAT-3A,2015-014A,2026-06-08T05:25:00.157728,15.53585249,.0055729,97.6889,149.9354,207.1018,152.7323,0,U,40536,999,62042,.27562E-3,.18683E-3,0
SENTINEL-2A,2015-028A,2026-06-08T04:38:56.101632,14.30821183,.0001082,98.5679,234.1728,88.6167,271.5140,0,U,40697,999,57244,.48838E-4,.84E-6,0
GAOFEN-8,2015-030A,2026-06-08T05:15:41.243040,15.45623342,.0008012,97.6914,352.0535,220.4046,139.6608,0,U,40701,999,61006,.3403E-3,.16323E-3,0
CARBONITE 1 (CBNT-1),2015-032D,2026-06-08T05:05:31.416288,14.83561197,.0013807,97.6510,337.6551,330.0860,29.9565,0,U,40718,999,58801,.21147E-3,.1693E-4,0
YAOGAN-27,2015-040A,2026-06-08T05:02:36.295584,13.16068850,.0007486,100.1156,145.9829,233.0685,126.9744,0,U,40878,999,51648,-.63016E-3,-.282E-5,0
GAOFEN-9 01,2015-047A,2026-06-08T05:21:01.259136,14.82867540,.0027702,97.6283,195.3247,166.4400,193.7564,0,U,40894,999,57886,.14163E-3,.1104E-4,0
YAOGAN-28,2015-064A,2026-06-08T05:11:22.944192,15.27302983,.0009823,97.3064,297.6623,215.9216,144.1364,0,U,41026,999,58931,.25499E-3,.6756E-4,0
YAOGAN-29,2015-069A,2026-06-08T04:54:31.923360,14.83077028,.0002952,98.0031,187.8233,67.5444,292.6082,0,U,41038,999,56929,.10023E-4,.27E-6,0
KENT RIDGE 1,2015-077B,2026-06-08T03:01:49.323648,15.23078071,.0008251,14.9808,333.3718,110.5670,249.5537,0,U,41167,999,57971,.15976E-3,.4648E-4,0
GAOFEN-4,2015-083A,2026-06-06T19:06:26.328384,1.00269078,.00043587,0.3301,83.7532,108.8481,94.9007,0,U,41194,999,3842,0,-.321E-5,0
JASON-3,2016-002A,2026-06-08T03:33:30.314592,12.87627844,.0008592,66.0391,144.8384,273.1160,86.8876,0,U,41240,999,48608,.9836E-4,-.37E-6,0
SENTINEL-3A,2016-011A,2026-06-08T04:04:31.779264,14.26737516,.0001352,98.6249,226.6826,104.3433,255.7897,0,U,41335,999,53677,.59468E-4,.1E-5,0
ZIYUAN 3-02 (ZY 3-02),2016-033A,2026-06-08T04:18:11.736000,15.21396213,.0011659,97.3833,235.1258,325.6191,34.4290,0,U,41556,999,55661,.26126E-3,.5802E-4,0
CARTOSAT-2C,2016-040A,2026-06-08T04:03:15.571872,15.19249616,.0009784,97.4483,219.2706,159.9419,200.2202,0,U,41599,999,55234,.26628E-3,.5551E-4,0
SKYSAT-C1,2016-040C,2026-06-08T00:46:04.526112,15.36146761,.0004149,96.9568,191.2490,75.7609,284.4097,0,U,41601,999,55646,.28217E-3,.9867E-4,0
LAPAN-A3,2016-040E,2026-06-08T05:58:40.157760,15.33047778,.00118,97.1490,155.6889,54.6657,305.5687,0,U,41603,999,55344,.10506E-3,.3285E-4,0
GAOFEN-3,2016-049A,2026-06-08T04:53:09.820032,14.42214054,.0001204,98.4016,167.1254,99.2902,260.8424,0,U,41727,999,51735,-.79624E-5,-.7E-6,0
