HODOYOSHI-4             
1 40011U 14033B   26159.15833287  .00001252  00000+0  14110-3 0  9996
2 40011  97.5458 344.4169 0023313 339.5942  20.4341 14.88109044647464
DEIMOS-2                
1 40013U 14033D   26159.13966198  .00002603  00000+0  25117-3 0  9994
2 40013  97.5836  33.9460 0002054  59.6778 300.4645 14.93704758636371
HODOYOSHI-3             
1 40015U 14033F   26159.02350112  .00001244  00000+0  14919-3 0  9995
2 40015  97.6412 322.4336 0033500  27.2469 333.0495 14.85370547646260
SPOT 7                  
1 40053U 14034A   26159.14100331  .00000545  00000+0  12046-3 0  9999
2 40053  98.0627 221.8654 0001190  85.0679 275.0658 14.60951107635810
SKYSAT-B                
1 40072U 14037D   26158.77818358  .00001606  00000+0  18161-3 0  9999
2 40072  98.3832 117.2073 0004610 320.3050  39.7827 14.88004373644562
WORLDVIEW-3 (WV-3)      
1 40115U 14048A   26159.13835841  .00000875  00000+0  10881-3 0  9994
2 40115  97.8565 234.0961 0001671  39.6239 320.5097 14.85007339640562
GAOFEN-2                
1 40118U 14049A   26159.18982488  .00000311  00000+0  47155-4 0  9993
2 40118  98.0106 223.4055 0005897 262.8434  97.2108 14.80888095637902
YAOGAN-21               
1 40143U 14053A   26159.18090325  .00008110  00000+0  31533-3 0  9993
2 40143  97.1477 199.8039 0009662 119.0333 241.1876 15.26243056653581
YAOGAN-22               
1 40275U 14063A   26159.13561240  .00000000  00000+0  12473-3 0  9996
2 40275 100.7713 310.2590 0006138 205.9601 154.1203 13.15530907558626
ASNARO                  
1 40298U 14070A   26159.20247782  .00008399  00000+0  40080-3 0  9993
2 40298  97.3449 235.5602 0004683 194.6870 165.4229 15.19304612642643
YAOGAN-24               
1 40310U 14072A   26159.20271579  .00000668  00000+0  10417-3 0  9993
2 40310  98.1480 296.4654 0012690 295.6040  64.3858 14.76211120622391
CBERS 4                 
1 40336U 14079A   26159.18505821  .00000193  00000+0  81836-4 0  9992
2 40336  98.3530 216.2988 0002042  71.9227 288.2182 14.35507116602662
YAOGAN-26               
1 40362U 14088A   26159.20818667  .00029403  00000+0  58240-3 0  9996
2 40362  97.0647 159.6304 0006542  88.3291 271.8708 15.46997847636318
SMAP                    
1 40376U 15003A   26159.19094500  .00000463  00000+0  98626-4 0  9997
2 40376  98.1276 166.4130 0001266  93.1601 266.9746 14.63358828606304
KOMPSAT-3A              
1 40536U 15014A   26159.22569627  .00018683  00000+0  27562-3 0  9991
2 40536  97.6889 149.9354 0055729 207.1018 152.7323 15.53585249620423
SENTINEL-2A             
1 40697U 15028A   26159.19370488  .00000084  00000+0  48838-4 0  9991
2 40697  98.5679 234.1728 0001082  88.6167 271.5140 14.30821183572449
GAOFEN-8                
1 40701U 15030A   26159.21922735  .00016323  00000+0  34030-3 0  9992
2 40701  97.6914 352.0535 0008012 220.4046 139.6608 15.45623342610063
CARBONITE 1 (CBNT-1)    
1 40718U 15032D   26159.21216917  .00001693  00000+0  21147-3 0  9999
2 40718  97.6510 337.6551 0013807 330.0860  29.9565 14.83561197588012
YAOGAN-27               
1 40878U 15040A   26159.21014231 -.00000282  00000+0 -63016-3 0  9996
2 40878 100.1156 145.9829 0007486 233.0685 126.9744 13.16068850516488
GAOFEN-9 01             
1 40894U 15047A   26159.22293124  .00001104  00000+0  14163-3 0  9993
2 40894  97.6283 195.3247 0027702 166.4400 193.7564 14.82867540578866
YAOGAN-28               
1 41026U 15064A   26159.21623778  .00006756  00000+0  25499-3 0  9993
2 41026  97.3064 297.6623 0009823 215.9216 144.1364 15.27302983589316
YAOGAN-29               
1 41038U 15069A   26159.20453615  .00000027  00000+0  10023-4 0  9994
2 41038  98.0031 187.8233 0002952  67.5444 292.6082 14.83077028569299
KENT RIDGE 1            
1 41167U 15077B   26159.12626532  .00004648  00000+0  15976-3 0  9991
2 41167  14.9808 333.3718 0008251 110.5670 249.5537 15.23078071579713
GAOFEN-4                
1 41194U 15083A   26157.79613806 -.00000321  00000+0  00000+0 0  9992
2 41194   0.3301  83.7532 0004358 108.8481  94.9007  1.00269078 38425
JASON-3                 
1 41240U 16002A   26159.14826753 -.00000037  00000+0  98360-4 0  9999
2 41240  66.0391 144.8384 0008592 273.1160  86.8876 12.87627844486082
SENTINEL-3A             
1 41335U 16011A   26159.16981226  .00000100  00000+0  59468-4 0  9999
2 41335  98.6249 226.6826 0001352 104.3433 255.7897 14.26737516536770
ZIYUAN 3-02 (ZY 3-02)   
1 41556U 16033A   26159.17930250  .00005802  00000+0  26126-3 0  9998
2 41556  97.3833 235.1258 0011659 325.6191  34.4290 15.21396213556619
CARTOSAT-2C             
1 41599U 16040A   26159.16893023  .00005551  00000+0  26628-3 0  9996
2 41599  97.4483 219.2706 0009784 159.9419 200.2202 15.19249616552349
SKYSAT-C1               
1 41601U 16040C   26159.03199683  .00009867  00000+0  28217-3 0  9997
2 41601  96.9568 191.2490 0004149  75.7609 284.4097 15.36146761556465
LAPAN-A3                
1 41603U 16040E   26159.24907590  .00003285  00000+0  10506-3 0  9996
2 41603  97.1490 155.6889 0011800  54.6657 305.5687 15.33047778553441
GAOFEN-3                
1 41727U 16049A   26159.20358588 -.00000070  00000+0 -79624-5 0  9994
2 41727  98.4016 167.1254 0001204  99.2902 260.8424 14.42214054517359
